[{"OBJECT_NAME":"STARLINK-6252","OBJECT_ID":"2023-065BE","EPOCH":"2026-03-09T22:00:01.999584","MEAN_MOTION":15.15002146,"ECCENTRICITY":0.00013428,"INCLINATION":42.9994,"RA_OF_ASC_NODE":221.0845,"ARG_OF_PERICENTER":246.3655,"MEAN_ANOMALY":18.2369,"EPHEMERIS_TYPE":0,"CLASSIFICATION_TYPE":"U","NORAD_CAT_ID":56555,"ELEMENT_SET_NO":999,"REV_AT_EPOCH":547,"BSTAR":0.0060184305,"MEAN_MOTION_DOT":0.00116057,"MEAN_MOTION_DDOT":0},{"OBJECT_NAME":"OBJECT Q","OBJECT_ID":"2024-205Q","EPOCH":"2026-03-09T08:02:25.893024","MEAN_MOTION":15.17509239,"ECCENTRICITY":0.00132024,"INCLINATION":97.4206,"RA_OF_ASC_NODE":142.9783,"ARG_OF_PERICENTER":51.3231,"MEAN_ANOMALY":308.9181,"EPHEMERIS_TYPE":0,"CLASSIFICATION_TYPE":"U","NORAD_CAT_ID":61908,"ELEMENT_SET_NO":999,"REV_AT_EPOCH":7319,"BSTAR":0.00052829629,"MEAN_MOTION_DOT":0.00010555,"MEAN_MOTION_DDOT":0}]
